HULIANWANG DIGUI-140    
1 67438U 26007D   26020.50852688  .00000126  00000+0  21305-3 0  9997
2 67438  50.0056 267.0645 0008944 287.0206  72.9713 13.91902794   965
HULIANWANG DIGUI-141    
1 67439U 26007E   26020.50719914  .00000102  00000+0  19341-3 0  9993
2 67439  50.0048 267.0563 0006734 285.9499  74.0658 13.92171247   965
HULIANWANG DIGUI-142    
1 67440U 26007F   26020.36301152 -.00000104  00000+0  33345-4 0  9994
2 67440  50.0126 267.6377 0007601 294.4418  65.5688 13.92299725   941
HULIANWANG DIGUI-143    
1 67441U 26007G   26020.57819648  .00000151  00000+0  23080-3 0  9997
2 67441  50.0104 266.7735 0006309 291.6377  68.3850 13.92329917   975
HULIANWANG DIGUI-144    
1 67442U 26007H   26020.50613640  .00000079  00000+0  17509-3 0  9993
2 67442  50.0092 267.0578 0007469 301.7918  58.2254 13.92386173   965
HULIANWANG DIGUI-145    
1 67443U 26007J   26022.58649248  .00000143  00000+0  22343-3 0  9991
2 67443  50.0092 258.7361 0006015 307.1243  52.9107 13.92539362  1251
CZ-8A R/B               
1 67444U 26007K   26022.94952025  .00000107  00000+0  13315-3 0  9991
2 67444  50.0091 255.9815 0092183 115.0073 246.0443 14.13546556  1315
STARLINK-36542          
1 67445U 26008A   26022.91668981 -.01107756  38115-3 -25261-2 0  9990
2 67445  43.0020 112.1464 0001668 280.5139 165.0818 15.96536646  2434
STARLINK-36539          
1 67446U 26008B   26022.91668981 -.01109530  38260-3 -25183-2 0  9997
2 67446  43.0019 112.1413 0001820 278.2288 169.3637 15.96621702  2430
STARLINK-36440          
1 67447U 26008C   26022.91668981 -.01118140  38842-3 -25249-2 0  9994
2 67447  43.0020 112.1361 0001632 282.3080 167.4499 15.96716736  2439
STARLINK-36423          
1 67448U 26008D   26022.91668981 -.01121332  39078-3 -25207-2 0  9998
2 67448  43.0021 112.1309 0001698 281.4571 170.2397 15.96798975  2434
STARLINK-36519          
1 67449U 26008E   26022.91668981 -.01129870  39661-3 -25271-2 0  9993
2 67449  43.0021 112.1257 0001627 281.3855 172.4170 15.96892278  2437
