CCSDS_OMM_VERS = 2.0
CREATION_DATE  = 
ORIGINATOR     = 

OBJECT_NAME    = HULIANWANG DIGUI-140
OBJECT_ID      = 2026-007D
CENTER_NAME    = EARTH
REF_FRAME      = TEME
TIME_SYSTEM    = UTC
MEAN_ELEMENT_THEORY = SGP/SGP4

EPOCH          = 2026-01-20T12:12:16.722432
MEAN_MOTION    = 13.91902794
ECCENTRICITY   = .00089449
INCLINATION    = 50.0056
RA_OF_ASC_NODE = 267.0645
ARG_OF_PERICENTER = 287.0206
MEAN_ANOMALY   = 72.9713

EPHEMERIS_TYPE = 0
CLASSIFICATION_TYPE = U
NORAD_CAT_ID   = 67438
ELEMENT_SET_NO = 999
REV_AT_EPOCH   = 96
BSTAR          = .21305041E-3
MEAN_MOTION_DOT = .126E-5
MEAN_MOTION_DDOT = 0

CCSDS_OMM_VERS = 2.0
CREATION_DATE  = 
ORIGINATOR     = 

OBJECT_NAME    = HULIANWANG DIGUI-141
OBJECT_ID      = 2026-007E
CENTER_NAME    = EARTH
REF_FRAME      = TEME
TIME_SYSTEM    = UTC
MEAN_ELEMENT_THEORY = SGP/SGP4

EPOCH          = 2026-01-20T12:10:22.005696
MEAN_MOTION    = 13.92171247
ECCENTRICITY   = .00067344
INCLINATION    = 50.0048
RA_OF_ASC_NODE = 267.0563
ARG_OF_PERICENTER = 285.9499
MEAN_ANOMALY   = 74.0658

EPHEMERIS_TYPE = 0
CLASSIFICATION_TYPE = U
NORAD_CAT_ID   = 67439
ELEMENT_SET_NO = 999
REV_AT_EPOCH   = 96
BSTAR          = .19340875E-3
MEAN_MOTION_DOT = .102E-5
MEAN_MOTION_DDOT = 0

CCSDS_OMM_VERS = 2.0
CREATION_DATE  = 
ORIGINATOR     = 

OBJECT_NAME    = HULIANWANG DIGUI-142
OBJECT_ID      = 2026-007F
CENTER_NAME    = EARTH
REF_FRAME      = TEME
TIME_SYSTEM    = UTC
MEAN_ELEMENT_THEORY = SGP/SGP4

EPOCH          = 2026-01-20T08:42:44.195328
MEAN_MOTION    = 13.92299725
ECCENTRICITY   = .00076014
INCLINATION    = 50.0126
RA_OF_ASC_NODE = 267.6377
ARG_OF_PERICENTER = 294.4418
MEAN_ANOMALY   = 65.5688

EPHEMERIS_TYPE = 0
CLASSIFICATION_TYPE = U
NORAD_CAT_ID   = 67440
ELEMENT_SET_NO = 999
REV_AT_EPOCH   = 94
BSTAR          = .33344917E-4
MEAN_MOTION_DOT = -.104E-5
MEAN_MOTION_DDOT = 0

CCSDS_OMM_VERS = 2.0
CREATION_DATE  = 
ORIGINATOR     = 

OBJECT_NAME    = HULIANWANG DIGUI-143
OBJECT_ID      = 2026-007G
CENTER_NAME    = EARTH
REF_FRAME      = TEME
TIME_SYSTEM    = UTC
MEAN_ELEMENT_THEORY = SGP/SGP4

EPOCH          = 2026-01-20T13:52:36.175872
MEAN_MOTION    = 13.92329917
ECCENTRICITY   = .00063096
INCLINATION    = 50.0104
RA_OF_ASC_NODE = 266.7735
ARG_OF_PERICENTER = 291.6377
MEAN_ANOMALY   = 68.3850

EPHEMERIS_TYPE = 0
CLASSIFICATION_TYPE = U
NORAD_CAT_ID   = 67441
ELEMENT_SET_NO = 999
REV_AT_EPOCH   = 97
BSTAR          = .23079653E-3
MEAN_MOTION_DOT = .151E-5
MEAN_MOTION_DDOT = 0

CCSDS_OMM_VERS = 2.0
CREATION_DATE  = 
ORIGINATOR     = 

OBJECT_NAME    = HULIANWANG DIGUI-144
OBJECT_ID      = 2026-007H
CENTER_NAME    = EARTH
REF_FRAME      = TEME
TIME_SYSTEM    = UTC
MEAN_ELEMENT_THEORY = SGP/SGP4

EPOCH          = 2026-01-20T12:08:50.184960
MEAN_MOTION    = 13.92386173
ECCENTRICITY   = .0007469
INCLINATION    = 50.0092
RA_OF_ASC_NODE = 267.0578
ARG_OF_PERICENTER = 301.7918
MEAN_ANOMALY   = 58.2254

EPHEMERIS_TYPE = 0
CLASSIFICATION_TYPE = U
NORAD_CAT_ID   = 67442
ELEMENT_SET_NO = 999
REV_AT_EPOCH   = 96
BSTAR          = .17509498E-3
MEAN_MOTION_DOT = .79E-6
MEAN_MOTION_DDOT = 0

CCSDS_OMM_VERS = 2.0
CREATION_DATE  = 
ORIGINATOR     = 

OBJECT_NAME    = HULIANWANG DIGUI-145
OBJECT_ID      = 2026-007J
CENTER_NAME    = EARTH
REF_FRAME      = TEME
TIME_SYSTEM    = UTC
MEAN_ELEMENT_THEORY = SGP/SGP4

EPOCH          = 2026-01-22T14:04:32.950272
MEAN_MOTION    = 13.92539362
ECCENTRICITY   = .00060155
INCLINATION    = 50.0092
RA_OF_ASC_NODE = 258.7361
ARG_OF_PERICENTER = 307.1243
MEAN_ANOMALY   = 52.9107

EPHEMERIS_TYPE = 0
CLASSIFICATION_TYPE = U
NORAD_CAT_ID   = 67443
ELEMENT_SET_NO = 999
REV_AT_EPOCH   = 125
BSTAR          = .22343072E-3
MEAN_MOTION_DOT = .143E-5
MEAN_MOTION_DDOT = 0

CCSDS_OMM_VERS = 2.0
CREATION_DATE  = 
ORIGINATOR     = 

OBJECT_NAME    = CZ-8A R/B
OBJECT_ID      = 2026-007K
CENTER_NAME    = EARTH
REF_FRAME      = TEME
TIME_SYSTEM    = UTC
MEAN_ELEMENT_THEORY = SGP/SGP4

EPOCH          = 2026-01-22T22:47:18.549600
MEAN_MOTION    = 14.13546556
ECCENTRICITY   = .00921835
INCLINATION    = 50.0091
RA_OF_ASC_NODE = 255.9815
ARG_OF_PERICENTER = 115.0073
MEAN_ANOMALY   = 246.0443

EPHEMERIS_TYPE = 0
CLASSIFICATION_TYPE = U
NORAD_CAT_ID   = 67444
ELEMENT_SET_NO = 999
REV_AT_EPOCH   = 131
BSTAR          = .13315132E-3
MEAN_MOTION_DOT = .107E-5
MEAN_MOTION_DDOT = 0

CCSDS_OMM_VERS = 2.0
CREATION_DATE  = 
ORIGINATOR     = 

OBJECT_NAME    = STARLINK-36542
OBJECT_ID      = 2026-008A
CENTER_NAME    = EARTH
REF_FRAME      = TEME
TIME_SYSTEM    = UTC
MEAN_ELEMENT_THEORY = SGP/SGP4

EPOCH          = 2026-01-22T22:00:01.999584
MEAN_MOTION    = 15.96536646
ECCENTRICITY   = .00016689
INCLINATION    = 43.0020
RA_OF_ASC_NODE = 112.1464
ARG_OF_PERICENTER = 280.5139
MEAN_ANOMALY   = 165.0818

EPHEMERIS_TYPE = 0
CLASSIFICATION_TYPE = U
NORAD_CAT_ID   = 67445
ELEMENT_SET_NO = 999
REV_AT_EPOCH   = 243
BSTAR          = -.2526119E-2
MEAN_MOTION_DOT = -.1107756E-1
MEAN_MOTION_DDOT = .3811528E-3

CCSDS_OMM_VERS = 2.0
CREATION_DATE  = 
ORIGINATOR     = 

OBJECT_NAME    = STARLINK-36539
OBJECT_ID      = 2026-008B
CENTER_NAME    = EARTH
REF_FRAME      = TEME
TIME_SYSTEM    = UTC
MEAN_ELEMENT_THEORY = SGP/SGP4

EPOCH          = 2026-01-22T22:00:01.999584
MEAN_MOTION    = 15.96621702
ECCENTRICITY   = .00018202
INCLINATION    = 43.0019
RA_OF_ASC_NODE = 112.1413
ARG_OF_PERICENTER = 278.2288
MEAN_ANOMALY   = 169.3637

EPHEMERIS_TYPE = 0
CLASSIFICATION_TYPE = U
NORAD_CAT_ID   = 67446
ELEMENT_SET_NO = 999
REV_AT_EPOCH   = 243
BSTAR          = -.25183241E-2
MEAN_MOTION_DOT = -.110953E-1
MEAN_MOTION_DDOT = .38260175E-3

CCSDS_OMM_VERS = 2.0
CREATION_DATE  = 
ORIGINATOR     = 

OBJECT_NAME    = STARLINK-36440
OBJECT_ID      = 2026-008C
CENTER_NAME    = EARTH
REF_FRAME      = TEME
TIME_SYSTEM    = UTC
MEAN_ELEMENT_THEORY = SGP/SGP4

EPOCH          = 2026-01-22T22:00:01.999584
MEAN_MOTION    = 15.96716736
ECCENTRICITY   = .00016322
INCLINATION    = 43.0020
RA_OF_ASC_NODE = 112.1361
ARG_OF_PERICENTER = 282.3080
MEAN_ANOMALY   = 167.4499

EPHEMERIS_TYPE = 0
CLASSIFICATION_TYPE = U
NORAD_CAT_ID   = 67447
ELEMENT_SET_NO = 999
REV_AT_EPOCH   = 243
BSTAR          = -.25249111E-2
MEAN_MOTION_DOT = -.111814E-1
MEAN_MOTION_DDOT = .38841942E-3

CCSDS_OMM_VERS = 2.0
CREATION_DATE  = 
ORIGINATOR     = 

OBJECT_NAME    = STARLINK-36423
OBJECT_ID      = 2026-008D
CENTER_NAME    = EARTH
REF_FRAME      = TEME
TIME_SYSTEM    = UTC
MEAN_ELEMENT_THEORY = SGP/SGP4

EPOCH          = 2026-01-22T22:00:01.999584
MEAN_MOTION    = 15.96798975
ECCENTRICITY   = .00016983
INCLINATION    = 43.0021
RA_OF_ASC_NODE = 112.1309
ARG_OF_PERICENTER = 281.4571
MEAN_ANOMALY   = 170.2397

EPHEMERIS_TYPE = 0
CLASSIFICATION_TYPE = U
NORAD_CAT_ID   = 67448
ELEMENT_SET_NO = 999
REV_AT_EPOCH   = 243
BSTAR          = -.25207102E-2
MEAN_MOTION_DOT = -.1121332E-1
MEAN_MOTION_DDOT = .39077684E-3

CCSDS_OMM_VERS = 2.0
CREATION_DATE  = 
ORIGINATOR     = 

OBJECT_NAME    = STARLINK-36519
OBJECT_ID      = 2026-008E
CENTER_NAME    = EARTH
REF_FRAME      = TEME
TIME_SYSTEM    = UTC
MEAN_ELEMENT_THEORY = SGP/SGP4

EPOCH          = 2026-01-22T22:00:01.999584
MEAN_MOTION    = 15.96892278
ECCENTRICITY   = .0001627
INCLINATION    = 43.0021
RA_OF_ASC_NODE = 112.1257
ARG_OF_PERICENTER = 281.3855
MEAN_ANOMALY   = 172.4170

EPHEMERIS_TYPE = 0
CLASSIFICATION_TYPE = U
NORAD_CAT_ID   = 67449
ELEMENT_SET_NO = 999
REV_AT_EPOCH   = 243
BSTAR          = -.25270924E-2
MEAN_MOTION_DOT = -.112987E-1
MEAN_MOTION_DDOT = .39660877E-3

